[{"OBJECT_NAME":"KUIPER-00042","OBJECT_ID":"2025-134D","EPOCH":"2026-03-09T21:22:19.187904","MEAN_MOTION":14.79992104,"ECCENTRICITY":0.00070968,"INCLINATION":51.8988,"RA_OF_ASC_NODE":240.7018,"ARG_OF_PERICENTER":281.3124,"MEAN_ANOMALY":78.7041,"EPHEMERIS_TYPE":0,"CLASSIFICATION_TYPE":"U","NORAD_CAT_ID":64503,"ELEMENT_SET_NO":999,"REV_AT_EPOCH":3998,"BSTAR":0.00061477157,"MEAN_MOTION_DOT":4.475e-5,"MEAN_MOTION_DDOT":0},{"OBJECT_NAME":"SL-16 DEB","OBJECT_ID":"1993-016BL","EPOCH":"2026-03-05T18:01:22.151712","MEAN_MOTION":14.78182986,"ECCENTRICITY":0.0045093,"INCLINATION":71.0094,"RA_OF_ASC_NODE":189.5331,"ARG_OF_PERICENTER":24.0544,"MEAN_ANOMALY":336.2703,"EPHEMERIS_TYPE":0,"CLASSIFICATION_TYPE":"U","NORAD_CAT_ID":39886,"ELEMENT_SET_NO":999,"REV_AT_EPOCH":62700,"BSTAR":0.0010794813,"MEAN_MOTION_DOT":7.906e-5,"MEAN_MOTION_DDOT":0}]
